{
    "links": {
        "self": "http://www.neowsapp.com/rest/v1/neo/3819562?api_key=iIulBulltgU6a56xZRHN4H3l9WmuAYTsLGpBGhQ2"
    },
    "id": "3819562",
    "neo_reference_id": "3819562",
    "name": "(2018 HT1)",
    "designation": "2018 HT1",
    "nasa_jpl_url": "http://ssd.jpl.nasa.gov/sbdb.cgi?sstr=3819562",
    "absolute_magnitude_h": 24.4,
    "estimated_diameter": {
        "kilometers": {
            "estimated_diameter_min": 0.0350392641,
            "estimated_diameter_max": 0.0783501764
        },
        "meters": {
            "estimated_diameter_min": 35.0392641108,
            "estimated_diameter_max": 78.3501764334
        },
        "miles": {
            "estimated_diameter_min": 0.0217723826,
            "estimated_diameter_max": 0.0486845275
        },
        "feet": {
            "estimated_diameter_min": 114.9582192654,
            "estimated_diameter_max": 257.0543928497
        }
    },
    "is_potentially_hazardous_asteroid": false,
    "close_approach_data": [
        {
            "close_approach_date": "2018-04-29",
            "close_approach_date_full": "2018-Apr-29 18:13",
            "epoch_date_close_approach": 1525025580000,
            "relative_velocity": {
                "kilometers_per_second": "7.4918293237",
                "kilometers_per_hour": "26970.5855654913",
                "miles_per_hour": "16758.4730142909"
            },
            "miss_distance": {
                "astronomical": "0.0735385339",
                "lunar": "28.6064896871",
                "kilometers": "11001208.034362793",
                "miles": "6835833.6907328234"
            },
            "orbiting_body": "Earth"
        }
    ],
    "orbital_data": {
        "orbit_id": "3",
        "orbit_determination_date": "2018-05-13 06:25:10",
        "first_observation_date": "2018-04-21",
        "last_observation_date": "2018-05-12",
        "data_arc_in_days": 21,
        "observations_used": 54,
        "orbit_uncertainty": "8",
        "minimum_orbit_intersection": ".0723586",
        "jupiter_tisserand_invariant": "4.542",
        "epoch_osculation": "2458231.5",
        "eccentricity": ".2658575933874098",
        "semi_major_axis": "1.468719458345348",
        "inclination": "12.7634320214695",
        "ascending_node_longitude": "37.30198782479209",
        "orbital_period": "650.1397199792982",
        "perihelion_distance": "1.078249237788394",
        "perihelion_argument": "186.8534078562134",
        "aphelion_distance": "1.859189678902303",
        "perihelion_time": "2458242.596438145293",
        "mean_anomaly": "353.855601173802",
        "mean_motion": ".5537271280878873",
        "equinox": "J2000",
        "orbit_class": {
            "orbit_class_type": "AMO",
            "orbit_class_description": "Near-Earth asteroid orbits similar to that of 1221 Amor",
            "orbit_class_range": "1.017 AU < q (perihelion) < 1.3 AU"
        }
    },
    "is_sentry_object": false
}